STARLINK-1645
1 17622C 21012C   21326.15433803  .00003910  00000-0  26191-3 0  3267
2 17622  53.0548 273.0377 0002153  56.6138  20.6362 15.06402969    19
